start=new Date('2022-08-24T00:00:00.000Z').valueOf();
sats=[{"SEMIMAJOR_AXIS":"6925.363","MEAN_MOTION_DDOT":"0.0000000000000","BSTAR":"0.00004231700000","SITE":"AFETR","INCLINATION":"53.0552","TIME_SYSTEM":"UTC","APOAPSIS":"548.106","PERIAPSIS":"546.350","REF_FRAME":"TEME","CENTER_NAME":"EARTH","MEAN_ELEMENT_THEORY":"SGP4","ELEMENT_SET_NO":"999","RA_OF_ASC_NODE":"341.6048","OBJECT_ID":"2020-088V","OBJECT_NAME":"STARLINK-1854","CLASSIFICATION_TYPE":"U","COUNTRY_CODE":"US","MEAN_MOTION":"15.06395214","EPHEMERIS_TYPE":"0","MEAN_MOTION_DOT":"0.00000349","TLE_LINE2":"2 47141  53.0552 341.6048 0001268  93.7189 266.3945 15.06395214 96915","MEAN_ANOMALY":"266.3945","OBJECT_TYPE":"PAYLOAD","FILE":"3545070","DECAY_DATE":null,"REV_AT_EPOCH":"9691","EPOCH":"2022-08-23T11:19:14.050560","NORAD_CAT_ID":"47141","ECCENTRICITY":"0.00012680","PERIOD":"95.592","GP_ID":"210822743","ARG_OF_PERICENTER":"93.7189","RCS_SIZE":"LARGE","LAUNCH_DATE":"2020-11-25","TLE_LINE1":"1 47141U 20088V   22235.47169040  .00000349  00000-0  42317-4 0  9997"},{"MEAN_MOTION":"15.06397396","EPHEMERIS_TYPE":"0","OBJECT_TYPE":"PAYLOAD","FILE":"3545624","MEAN_MOTION_DOT":"0.00000868","MEAN_ANOMALY":"273.9550","TLE_LINE2":"2 47143  53.0566 341.0733 0001375  86.1596 273.9550 15.06397396 96924","COUNTRY_CODE":"US","GP_ID":"210860008","ARG_OF_PERICENTER":"86.1596","LAUNCH_DATE":"2020-11-25","TLE_LINE1":"1 47143U 20088X   22235.58594673  .00000868  00000-0  77168-4 0  9993","RCS_SIZE":"LARGE","REV_AT_EPOCH":"9692","NORAD_CAT_ID":"47143","EPOCH":"2022-08-23T14:03:45.797472","DECAY_DATE":null,"PERIOD":"95.592","ECCENTRICITY":"0.00013750","TIME_SYSTEM":"UTC","MEAN_MOTION_DDOT":"0.0000000000000","BSTAR":"0.00007716800000","SEMIMAJOR_AXIS":"6925.357","INCLINATION":"53.0566","SITE":"AFETR","RA_OF_ASC_NODE":"341.0733","OBJECT_ID":"2020-088X","OBJECT_NAME":"STARLINK-1856","CLASSIFICATION_TYPE":"U","PERIAPSIS":"546.269","APOAPSIS":"548.174","REF_FRAME":"TEME","ELEMENT_SET_NO":"999","CENTER_NAME":"EARTH","MEAN_ELEMENT_THEORY":"SGP4"},{"RCS_SIZE":"LARGE","TLE_LINE1":"1 47144U 20088Y   22235.57213061 -.00000715  00000-0 -29139-4 0  9990","LAUNCH_DATE":"2020-11-25","GP_ID":"210860251","ARG_OF_PERICENTER":"80.7400","ECCENTRICITY":"0.00013990","PERIOD":"95.593","DECAY_DATE":null,"NORAD_CAT_ID":"47144","EPOCH":"2022-08-23T13:43:52.084704","REV_AT_EPOCH":"9706","MEAN_ANOMALY":"279.3747","TLE_LINE2":"2 47144  53.0551 331.1360 0001399  80.7400 279.3747 15.06392765 97064","MEAN_MOTION_DOT":"-0.00000715","OBJECT_TYPE":"PAYLOAD","FILE":"3545624","EPHEMERIS_TYPE":"0","MEAN_MOTION":"15.06392765","COUNTRY_CODE":"US","CLASSIFICATION_TYPE":"U","OBJECT_ID":"2020-088Y","OBJECT_NAME":"STARLINK-1857","RA_OF_ASC_NODE":"331.1360","MEAN_ELEMENT_THEORY":"SGP4","CENTER_NAME":"EARTH","ELEMENT_SET_NO":"999","REF_FRAME":"TEME","APOAPSIS":"548.205","PERIAPSIS":"546.267","TIME_SYSTEM":"UTC","SITE":"AFETR","INCLINATION":"53.0551","SEMIMAJOR_AXIS":"6925.371","BSTAR":"-0.00002913900000","MEAN_MOTION_DDOT":"0.0000000000000"},{"MEAN_MOTION_DDOT":"0.0000000000000","BSTAR":"-0.00006707500000","SEMIMAJOR_AXIS":"6925.376","INCLINATION":"53.0565","SITE":"AFETR","TIME_SYSTEM":"UTC","PERIAPSIS":"546.317","APOAPSIS":"548.164","REF_FRAME":"TEME","ELEMENT_SET_NO":"999","CENTER_NAME":"EARTH","MEAN_ELEMENT_THEORY":"SGP4","RA_OF_ASC_NODE":"350.4383","OBJECT_ID":"2020-088AB","OBJECT_NAME":"STARLINK-1860","CLASSIFICATION_TYPE":"U","COUNTRY_CODE":"US","MEAN_MOTION":"15.06391197","EPHEMERIS_TYPE":"0","OBJECT_TYPE":"PAYLOAD","FILE":"3545624","MEAN_MOTION_DOT":"-0.00001280","MEAN_ANOMALY":"263.0398","TLE_LINE2":"2 47147  53.0565 350.4383 0001333  97.0742 263.0398 15.06391197 96811","NORAD_CAT_ID":"47147","EPOCH":"2022-08-23T17:29:26.627424","REV_AT_EPOCH":"9681","DECAY_DATE":null,"PERIOD":"95.593","ECCENTRICITY":"0.00013330","GP_ID":"210859007","ARG_OF_PERICENTER":"97.0742","LAUNCH_DATE":"2020-11-25","TLE_LINE1":"1 47147U 20088AB  22235.72878041 -.00001280  00000-0 -67075-4 0  9994","RCS_SIZE":"LARGE"},{"EPOCH":"2022-08-23T15:18:04.866048","NORAD_CAT_ID":"47148","REV_AT_EPOCH":"9693","DECAY_DATE":null,"PERIOD":"95.593","ECCENTRICITY":"0.00014230","GP_ID":"210859255","ARG_OF_PERICENTER":"79.4166","TLE_LINE1":"1 47148U 20088AC  22235.63755632 -.00001787  00000-0 -10111-3 0  9995","LAUNCH_DATE":"2020-11-25","RCS_SIZE":"LARGE","COUNTRY_CODE":"US","EPHEMERIS_TYPE":"0","MEAN_MOTION":"15.06385465","FILE":"3545624","OBJECT_TYPE":"PAYLOAD","TLE_LINE2":"2 47148  53.0564 340.8595 0001423  79.4166 280.6983 15.06385465 96932","MEAN_ANOMALY":"280.6983","MEAN_MOTION_DOT":"-0.00001787","REF_FRAME":"TEME","PERIAPSIS":"546.273","APOAPSIS":"548.244","ELEMENT_SET_NO":"999","MEAN_ELEMENT_THEORY":"SGP4","CENTER_NAME":"EARTH","OBJECT_NAME":"STARLINK-1861","OBJECT_ID":"2020-088AC","RA_OF_ASC_NODE":"340.8595","CLASSIFICATION_TYPE":"U","BSTAR":"-0.00010111000000","MEAN_MOTION_DDOT":"0.0000000000000","SEMIMAJOR_AXIS":"6925.393","INCLINATION":"53.0564","SITE":"AFETR","TIME_SYSTEM":"UTC"},{"RCS_SIZE":"LARGE","TLE_LINE1":"1 47149U 20088AD  22235.46706719  .00000941  00000-0  82079-4 0  9991","LAUNCH_DATE":"2020-11-25","GP_ID":"210793089","ARG_OF_PERICENTER":"102.9369","ECCENTRICITY":"0.00014190","PERIOD":"95.592","DECAY_DATE":null,"NORAD_CAT_ID":"47149","EPOCH":"2022-08-23T11:12:34.605216","REV_AT_EPOCH":"9702","MEAN_ANOMALY":"257.1778","TLE_LINE2":"2 47149  53.0563 351.6081 0001419 102.9369 257.1778 15.06404976 97025","MEAN_MOTION_DOT":"0.00000941","OBJECT_TYPE":"PAYLOAD","FILE":"3544722","EPHEMERIS_TYPE":"0","MEAN_MOTION":"15.06404976","COUNTRY_CODE":"US","CLASSIFICATION_TYPE":"U","OBJECT_NAME":"STARLINK-1862","OBJECT_ID":"2020-088AD","RA_OF_ASC_NODE":"351.6081","MEAN_ELEMENT_THEORY":"SGP4","CENTER_NAME":"EARTH","ELEMENT_SET_NO":"999","REF_FRAME":"TEME","APOAPSIS":"548.181","PERIAPSIS":"546.216","TIME_SYSTEM":"UTC","SITE":"AFETR","INCLINATION":"53.0563","SEMIMAJOR_AXIS":"6925.333","BSTAR":"0.00008207900000","MEAN_MOTION_DDOT":"0.0000000000000"},{"COUNTRY_CODE":"US","EPHEMERIS_TYPE":"0","MEAN_MOTION":"15.06394080","OBJECT_TYPE":"PAYLOAD","FILE":"3545624","TLE_LINE2":"2 47150  53.0560 341.0362 0001349  88.1820 271.9324 15.06394080 96932","MEAN_ANOMALY":"271.9324","MEAN_MOTION_DOT":"0.00001362","EPOCH":"2022-08-23T14:14:23.009568","NORAD_CAT_ID":"47150","REV_AT_EPOCH":"9693","DECAY_DATE":null,"PERIOD":"95.593","ECCENTRICITY":"0.00013490","GP_ID":"210860751","ARG_OF_PERICENTER":"88.1820","TLE_LINE1":"1 47150U 20088AE  22235.59332187  .00001362  00000-0  11030-3 0  9997","LAUNCH_DATE":"2020-11-25","RCS_SIZE":"LARGE","BSTAR":"0.00011030000000","MEAN_MOTION_DDOT":"0.0000000000000","SEMIMAJOR_AXIS":"6925.367","INCLINATION":"53.0560","SITE":"AFETR","TIME_SYSTEM":"UTC","REF_FRAME":"TEME","PERIAPSIS":"546.297","APOAPSIS":"548.166","ELEMENT_SET_NO":"999","MEAN_ELEMENT_THEORY":"SGP4","CENTER_NAME":"EARTH","OBJECT_NAME":"STARLINK-1863","OBJECT_ID":"2020-088AE","RA_OF_ASC_NODE":"341.0362","CLASSIFICATION_TYPE":"U"},{"INCLINATION":"53.0565","SITE":"AFETR","MEAN_MOTION_DDOT":"0.0000000000000","BSTAR":"-0.00004710500000","SEMIMAJOR_AXIS":"6925.369","TIME_SYSTEM":"UTC","ELEMENT_SET_NO":"999","CENTER_NAME":"EARTH","MEAN_ELEMENT_THEORY":"SGP4","APOAPSIS":"548.238","PERIAPSIS":"546.230","REF_FRAME":"TEME","CLASSIFICATION_TYPE":"U","RA_OF_ASC_NODE":"351.0564","OBJECT_ID":"2020-088AF","OBJECT_NAME":"STARLINK-1864","COUNTRY_CODE":"US","FILE":"3545624","OBJECT_TYPE":"PAYLOAD","MEAN_MOTION_DOT":"-0.00000983","MEAN_ANOMALY":"273.3875","TLE_LINE2":"2 47151  53.0565 351.0564 0001450  86.7280 273.3875 15.06393359 96788","MEAN_MOTION":"15.06393359","EPHEMERIS_TYPE":"0","PERIOD":"95.593","ECCENTRICITY":"0.00014500","EPOCH":"2022-08-23T14:13:03.243360","REV_AT_EPOCH":"9678","NORAD_CAT_ID":"47151","DECAY_DATE":null,"LAUNCH_DATE":"2020-11-25","TLE_LINE1":"1 47151U 20088AF  22235.59239865 -.00000983  00000-0 -47105-4 0  9990","RCS_SIZE":"LARGE","GP_ID":"210859507","ARG_OF_PERICENTER":"86.7280"},{"PERIAPSIS":"546.342","APOAPSIS":"548.163","REF_FRAME":"TEME","CENTER_NAME":"EARTH","MEAN_ELEMENT_THEORY":"SGP4","ELEMENT_SET_NO":"999","RA_OF_ASC_NODE":"353.1848","OBJECT_NAME":"STARLINK-1866","OBJECT_ID":"2020-088AG","CLASSIFICATION_TYPE":"U","SEMIMAJOR_AXIS":"6925.388","MEAN_MOTION_DDOT":"0.0000000000000","BSTAR":"0.00006093400000","SITE":"AFETR","INCLINATION":"53.0551","TIME_SYSTEM":"UTC","DECAY_DATE":null,"EPOCH":"2022-08-23T02:41:42.000288","NORAD_CAT_ID":"47152","REV_AT_EPOCH":"9671","ECCENTRICITY":"0.00013150","PERIOD":"95.593","GP_ID":"210822744","ARG_OF_PERICENTER":"96.1590","RCS_SIZE":"LARGE","LAUNCH_DATE":"2020-11-25","TLE_LINE1":"1 47152U 20088AG  22235.11229167  .00000626  00000-0  60934-4 0  9990","COUNTRY_CODE":"US","MEAN_MOTION":"15.06387289","EPHEMERIS_TYPE":"0","MEAN_MOTION_DOT":"0.00000626","MEAN_ANOMALY":"263.9549","TLE_LINE2":"2 47152  53.0551 353.1848 0001315  96.1590 263.9549 15.06387289 96712","OBJECT_TYPE":"PAYLOAD","FILE":"3545070"},{"TIME_SYSTEM":"UTC","SEMIMAJOR_AXIS":"6925.394","BSTAR":"0.00006718300000","MEAN_MOTION_DDOT":"0.0000000000000","SITE":"AFETR","INCLINATION":"53.0563","OBJECT_NAME":"STARLINK-1867","OBJECT_ID":"2020-088AH","RA_OF_ASC_NODE":"355.7695","CLASSIFICATION_TYPE":"U","REF_FRAME":"TEME","PERIAPSIS":"546.283","APOAPSIS":"548.235","MEAN_ELEMENT_THEORY":"SGP4","CENTER_NAME":"EARTH","ELEMENT_SET_NO":"999","EPHEMERIS_TYPE":"0","MEAN_MOTION":"15.06385092","MEAN_ANOMALY":"282.6489","TLE_LINE2":"2 47153  53.0563 355.7695 0001409  77.4658 282.6489 15.06385092 96738","MEAN_MOTION_DOT":"0.00000719","OBJECT_TYPE":"PAYLOAD","FILE":"3545624","COUNTRY_CODE":"US","ARG_OF_PERICENTER":"77.4658","GP_ID":"210860009","RCS_SIZE":"LARGE","TLE_LINE1":"1 47153U 20088AH  22235.70808311  .00000719  00000-0  67183-4 0  9996","LAUNCH_DATE":"2020-11-25","DECAY_DATE":null,"REV_AT_EPOCH":"9673","NORAD_CAT_ID":"47153","EPOCH":"2022-08-23T16:59:38.380704","ECCENTRICITY":"0.00014090","PERIOD":"95.593"}];
